[{"OBJECT_NAME":"JINJUSAT-1B","OBJECT_ID":"2025-052A","EPOCH":"2026-03-09T15:55:38.242848","MEAN_MOTION":15.30194857,"ECCENTRICITY":0.00055504,"INCLINATION":97.4113,"RA_OF_ASC_NODE":325.4613,"ARG_OF_PERICENTER":82.193,"MEAN_ANOMALY":277.9941,"EPHEMERIS_TYPE":0,"CLASSIFICATION_TYPE":"U","NORAD_CAT_ID":63210,"ELEMENT_SET_NO":999,"REV_AT_EPOCH":5486,"BSTAR":0.00068430401,"MEAN_MOTION_DOT":0.00019955,"MEAN_MOTION_DDOT":0},{"OBJECT_NAME":"STARLINK-34901","OBJECT_ID":"2025-176K","EPOCH":"2026-03-09T22:52:38.258976","MEAN_MOTION":15.30203085,"ECCENTRICITY":0.00013849,"INCLINATION":53.1597,"RA_OF_ASC_NODE":151.3019,"ARG_OF_PERICENTER":78.3427,"MEAN_ANOMALY":281.7729,"EPHEMERIS_TYPE":0,"CLASSIFICATION_TYPE":"U","NORAD_CAT_ID":65207,"ELEMENT_SET_NO":999,"REV_AT_EPOCH":3316,"BSTAR":0.0010129877,"MEAN_MOTION_DOT":0.00029766,"MEAN_MOTION_DDOT":0}]
