JINJUSAT-1B             
1 63210U 25052A   26068.66363707  .00019955  00000+0  68430-3 0  9998
2 63210  97.4113 325.4613 0005550  82.1930 277.9941 15.30194857 54866
STARLINK-34901          
1 65207U 25176K   26068.95322059  .00029766  00000+0  10130-2 0  9994
2 65207  53.1597 151.3019 0001385  78.3427 281.7729 15.30203085 33166
